{
    "links": {
        "self": "http://www.neowsapp.com/rest/v1/neo/3716435?api_key=iIulBulltgU6a56xZRHN4H3l9WmuAYTsLGpBGhQ2"
    },
    "id": "3716435",
    "neo_reference_id": "3716435",
    "name": "(2015 HB1)",
    "designation": "2015 HB1",
    "nasa_jpl_url": "http://ssd.jpl.nasa.gov/sbdb.cgi?sstr=3716435",
    "absolute_magnitude_h": 23.9,
    "estimated_diameter": {
        "kilometers": {
            "estimated_diameter_min": 0.04411182,
            "estimated_diameter_max": 0.0986370281
        },
        "meters": {
            "estimated_diameter_min": 44.1118199997,
            "estimated_diameter_max": 98.6370281305
        },
        "miles": {
            "estimated_diameter_min": 0.0274098057,
            "estimated_diameter_max": 0.0612901888
        },
        "feet": {
            "estimated_diameter_min": 144.7238235278,
            "estimated_diameter_max": 323.6123073718
        }
    },
    "is_potentially_hazardous_asteroid": false,
    "close_approach_data": [
        {
            "close_approach_date": "2015-04-03",
            "close_approach_date_full": "2015-Apr-03 11:17",
            "epoch_date_close_approach": 1428059820000,
            "relative_velocity": {
                "kilometers_per_second": "6.6858661456",
                "kilometers_per_hour": "24069.1181239973",
                "miles_per_hour": "14955.6139809915"
            },
            "miss_distance": {
                "astronomical": "0.1433539326",
                "lunar": "55.7646797814",
                "kilometers": "21445442.973083562",
                "miles": "13325580.3481026756"
            },
            "orbiting_body": "Earth"
        }
    ],
    "orbital_data": {
        "orbit_id": "9",
        "orbit_determination_date": "2017-04-06 08:34:21",
        "first_observation_date": "2015-04-17",
        "last_observation_date": "2015-04-28",
        "data_arc_in_days": 11,
        "observations_used": 28,
        "orbit_uncertainty": "8",
        "minimum_orbit_intersection": ".141917",
        "jupiter_tisserand_invariant": "3.774",
        "epoch_osculation": "2457133.5",
        "eccentricity": ".4297109972597056",
        "semi_major_axis": "1.936922759183679",
        "inclination": "9.243690685469451",
        "ascending_node_longitude": "217.2978835736223",
        "orbital_period": "984.6159805652212",
        "perihelion_distance": "1.10460574871984",
        "perihelion_argument": "316.4768239113223",
        "aphelion_distance": "2.769239769647518",
        "perihelion_time": "2457098.099917217285",
        "mean_anomaly": "12.94314743344066",
        "mean_motion": ".3656247787013787",
        "equinox": "J2000",
        "orbit_class": {
            "orbit_class_type": "AMO",
            "orbit_class_description": "Near-Earth asteroid orbits similar to that of 1221 Amor",
            "orbit_class_range": "1.017 AU < q (perihelion) < 1.3 AU"
        }
    },
    "is_sentry_object": false
}